{
  "type": "FeatureCollection",
  "features": [
    {
      "type": "Feature",
      "properties": {
        "norad_id": 41823,
        "name": "FENGYUN 1C DEB",
        "group": "fengyun-1c-debris",
        "lat": -1.1763969172691273,
        "lon": -140.10644321054338,
        "alt_km": 807.5121439604018,
        "timestamp": "2025-12-02T15:49:07.480712+00:00",
        "meta_object_name": "FENGYUN 1C DEB",
        "meta_object_id": "1999-025EYA",
        "meta_epoch": "2025-12-02T03:09:20.537280",
        "meta_mean_motion": 14.23401586,
        "meta_eccentricity": 0.00541073,
        "meta_inclination": 98.7221,
        "meta_ra_of_asc_node": 39.5513,
        "meta_arg_of_pericenter": 258.8981,
        "meta_mean_anomaly": 100.611,
        "meta_ephemeris_type": 0,
        "meta_classification_type": "U",
        "meta_norad_cat_id": 41823,
        "meta_element_set_no": 999,
        "meta_rev_at_epoch": 47207,
        "meta_bstar": 0.0016950611,
        "meta_mean_motion_dot": 3.863e-05,
        "meta_mean_motion_ddot": 0,
        "tle_line1": "1 41823U 99025EYA 25336.13148770  .00003863  00000+0  16951-2 0  9996",
        "tle_line2": "2 41823  98.7221  39.5513 0054107 258.8981 100.6110 14.23401586472076"
      },
      "geometry": {
        "type": "Point",
        "coordinates": [
          -140.10644321054338,
          -1.1763969172691273
        ]
      }
    },
    {
      "type": "Feature",
      "properties": {
        "norad_id": 41824,
        "name": "FENGYUN 1C DEB",
        "group": "fengyun-1c-debris",
        "lat": 23.659324197840007,
        "lon": 36.89104885848479,
        "alt_km": 835.9033456657089,
        "timestamp": "2025-12-02T15:49:07.480722+00:00",
        "meta_object_name": "FENGYUN 1C DEB",
        "meta_object_id": "1999-025EYB",
        "meta_epoch": "2025-12-02T03:54:06.991488",
        "meta_mean_motion": 14.24036744,
        "meta_eccentricity": 0.0056522,
        "meta_inclination": 98.7333,
        "meta_ra_of_asc_node": 40.2594,
        "meta_arg_of_pericenter": 257.71,
        "meta_mean_anomaly": 101.7747,
        "meta_ephemeris_type": 0,
        "meta_classification_type": "U",
        "meta_norad_cat_id": 41824,
        "meta_element_set_no": 999,
        "meta_rev_at_epoch": 47209,
        "meta_bstar": 0.0018227364,
        "meta_mean_motion_dot": 4.215e-05,
        "meta_mean_motion_ddot": 0,
        "tle_line1": "1 41824U 99025EYB 25336.16258092  .00004215  00000+0  18227-2 0  9999",
        "tle_line2": "2 41824  98.7333  40.2594 0056522 257.7100 101.7747 14.24036744472094"
      },
      "geometry": {
        "type": "Point",
        "coordinates": [
          36.89104885848479,
          23.659324197840007
        ]
      }
    },
    {
      "type": "Feature",
      "properties": {
        "norad_id": 41825,
        "name": "FENGYUN 1C DEB",
        "group": "fengyun-1c-debris",
        "lat": -32.586527383508205,
        "lon": -139.9200619186431,
        "alt_km": 783.1037519669835,
        "timestamp": "2025-12-02T15:49:07.480732+00:00",
        "meta_object_name": "FENGYUN 1C DEB",
        "meta_object_id": "1999-025EYC",
        "meta_epoch": "2025-11-26T03:46:33.202272",
        "meta_mean_motion": 14.24905851,
        "meta_eccentricity": 0.00545151,
        "meta_inclination": 98.7423,
        "meta_ra_of_asc_node": 39.2502,
        "meta_arg_of_pericenter": 268.2468,
        "meta_mean_anomaly": 91.2466,
        "meta_ephemeris_type": 0,
        "meta_classification_type": "U",
        "meta_norad_cat_id": 41825,
        "meta_element_set_no": 999,
        "meta_rev_at_epoch": 47112,
        "meta_bstar": 0.0019288716,
        "meta_mean_motion_dot": 4.534e-05,
        "meta_mean_motion_ddot": 0,
        "tle_line1": "1 41825U 99025EYC 25330.15732873  .00004534  00000+0  19289-2 0  9990",
        "tle_line2": "2 41825  98.7423  39.2502 0054515 268.2468  91.2466 14.24905851471124"
      },
      "geometry": {
        "type": "Point",
        "coordinates": [
          -139.9200619186431,
          -32.586527383508205
        ]
      }
    },
    {
      "type": "Feature",
      "properties": {
        "norad_id": 41826,
        "name": "FENGYUN 1C DEB",
        "group": "fengyun-1c-debris",
        "lat": -52.4269384019039,
        "lon": -149.0054016961894,
        "alt_km": 783.0473958803186,
        "timestamp": "2025-12-02T15:49:07.480743+00:00",
        "meta_object_name": "FENGYUN 1C DEB",
        "meta_object_id": "1999-025EYD",
        "meta_epoch": "2025-11-26T15:20:38.448096",
        "meta_mean_motion": 14.23588409,
        "meta_eccentricity": 0.00545194,
        "meta_inclination": 98.735,
        "meta_ra_of_asc_node": 36.5456,
        "meta_arg_of_pericenter": 270.1742,
        "meta_mean_anomaly": 89.3189,
        "meta_ephemeris_type": 0,
        "meta_classification_type": "U",
        "meta_norad_cat_id": 41826,
        "meta_element_set_no": 999,
        "meta_rev_at_epoch": 47131,
        "meta_bstar": 0.0016457098,
        "meta_mean_motion_dot": 3.763e-05,
        "meta_mean_motion_ddot": 0,
        "tle_line1": "1 41826U 99025EYD 25330.63933389  .00003763  00000+0  16457-2 0  9996",
        "tle_line2": "2 41826  98.7350  36.5456 0054519 270.1742  89.3189 14.23588409471319"
      },
      "geometry": {
        "type": "Point",
        "coordinates": [
          -149.0054016961894,
          -52.4269384019039
        ]
      }
    },
    {
      "type": "Feature",
      "properties": {
        "norad_id": 41827,
        "name": "FENGYUN 1C DEB",
        "group": "fengyun-1c-debris",
        "lat": 71.4551355916083,
        "lon": 18.592412782875634,
        "alt_km": 841.6306461420154,
        "timestamp": "2025-12-02T15:49:07.480753+00:00",
        "meta_object_name": "FENGYUN 1C DEB",
        "meta_object_id": "1999-025EYE",
        "meta_epoch": "2025-12-02T03:40:34.890240",
        "meta_mean_motion": 14.25136098,
        "meta_eccentricity": 0.005754,
        "meta_inclination": 98.7437,
        "meta_ra_of_asc_node": 45.3959,
        "meta_arg_of_pericenter": 243.7009,
        "meta_mean_anomaly": 115.8252,
        "meta_ephemeris_type": 0,
        "meta_classification_type": "U",
        "meta_norad_cat_id": 41827,
        "meta_element_set_no": 999,
        "meta_rev_at_epoch": 47180,
        "meta_bstar": 0.0019116302,
        "meta_mean_motion_dot": 4.522e-05,
        "meta_mean_motion_ddot": 0,
        "tle_line1": "1 41827U 99025EYE 25336.15318160  .00004522  00000+0  19116-2 0  9993",
        "tle_line2": "2 41827  98.7437  45.3959 0057540 243.7009 115.8252 14.25136098471806"
      },
      "geometry": {
        "type": "Point",
        "coordinates": [
          18.592412782875634,
          71.4551355916083
        ]
      }
    },
    {
      "type": "Feature",
      "properties": {
        "norad_id": 41828,
        "name": "FENGYUN 1C DEB",
        "group": "fengyun-1c-debris",
        "lat": 77.2211979101934,
        "lon": -32.07384142432205,
        "alt_km": 722.3415605000328,
        "timestamp": "2025-12-02T15:49:07.480763+00:00",
        "meta_object_name": "FENGYUN 1C DEB",
        "meta_object_id": "1999-025EYF",
        "meta_epoch": "2025-12-01T07:54:56.930976",
        "meta_mean_motion": 14.50973066,
        "meta_eccentricity": 0.0040398,
        "meta_inclination": 98.9217,
        "meta_ra_of_asc_node": 102.6805,
        "meta_arg_of_pericenter": 208.3082,
        "meta_mean_anomaly": 151.5915,
        "meta_ephemeris_type": 0,
        "meta_classification_type": "U",
        "meta_norad_cat_id": 41828,
        "meta_element_set_no": 999,
        "meta_rev_at_epoch": 47298,
        "meta_bstar": 0.0066175147,
        "meta_mean_motion_dot": 0.00026485,
        "meta_mean_motion_ddot": 0,
        "tle_line1": "1 41828U 99025EYF 25335.32982559  .00026485  00000+0  66175-2 0  9990",
        "tle_line2": "2 41828  98.9217 102.6805 0040398 208.3082 151.5915 14.50973066472988"
      },
      "geometry": {
        "type": "Point",
        "coordinates": [
          -32.07384142432205,
          77.2211979101934
        ]
      }
    },
    {
      "type": "Feature",
      "properties": {
        "norad_id": 41829,
        "name": "FENGYUN 1C DEB",
        "group": "fengyun-1c-debris",
        "lat": -45.00143945607583,
        "lon": -142.9481073944676,
        "alt_km": 778.0230988713483,
        "timestamp": "2025-12-02T15:49:07.480773+00:00",
        "meta_object_name": "FENGYUN 1C DEB",
        "meta_object_id": "1999-025EYG",
        "meta_epoch": "2025-12-02T02:57:47.548800",
        "meta_mean_motion": 14.24997447,
        "meta_eccentricity": 0.00558369,
        "meta_inclination": 98.7461,
        "meta_ra_of_asc_node": 45.3742,
        "meta_arg_of_pericenter": 249.5185,
        "meta_mean_anomaly": 109.9994,
        "meta_ephemeris_type": 0,
        "meta_classification_type": "U",
        "meta_norad_cat_id": 41829,
        "meta_element_set_no": 999,
        "meta_rev_at_epoch": 47156,
        "meta_bstar": 0.0018377047,
        "meta_mean_motion_dot": 4.329e-05,
        "meta_mean_motion_ddot": 0,
        "tle_line1": "1 41829U 99025EYG 25336.12346700  .00004329  00000+0  18377-2 0  9996",
        "tle_line2": "2 41829  98.7461  45.3742 0055836 249.5185 109.9994 14.24997447471562"
      },
      "geometry": {
        "type": "Point",
        "coordinates": [
          -142.9481073944676,
          -45.00143945607583
        ]
      }
    }
  ]
}